[Satellite]
VERSION=1.1
NAME=IRIDIUM 172
NICKNAME=IRIDIUM 172
TLE1=1 43927U 19002F   19317.46879342  .00000059  00000-0  13970-4 0  9999
TLE2=2 43927  86.3944 279.7135 0002573  89.6144 270.5346 14.34217019 43864
STATUS=0
